COSMOS 2419 (714)       
1 28915U 05050A   17204.40006072 -.00000016  00000-0  00000-0 0  9996
2 28915  65.5126  64.6345 0016660 357.3774 145.8936  2.13106868 90106
COSMOS 2425 (716)       
1 29670U 06062A   17204.56414142 -.00000030  00000-0  10000-3 0  9997
2 29670  65.4426 303.6364 0019704 346.3567 334.7187  2.13105072 82300
COSMOS 2426 (717)       
1 29671U 06062B   17204.91879985 -.00000030  00000-0  10000-3 0  9997
2 29671  65.4614 303.7166 0019018 164.3700 286.8510  2.13103042 82320
COSMOS 2424 (715)       
1 29672U 06062C   17204.64868308 -.00000030  00000-0  10000-3 0  9995
2 29672  65.4449 303.6454 0018384 163.1480 256.0776  2.13102467 82315
COSMOS 2433 (720)       
1 32275U 07052A   17204.77150748 -.00000019  00000-0  10000-3 0  9991
2 32275  65.5293  64.3981 0001166 305.7407   6.4539  2.13104689 75825
COSMOS 2432 (719)       
1 32276U 07052B   17204.82344608 -.00000019  00000-0  10000-3 0  9998
2 32276  65.5390  64.4708 0011668 344.6962 320.1609  2.13104141 75825
COSMOS 2434 (721)       
1 32393U 07065A   17204.58285022 -.00000029  00000-0  00000-0 0  9996
2 32393  65.0586 302.7677 0005131 124.2022 292.6808  2.13103050 74536
COSMOS 2436 (723)       
1 32395U 07065C   17204.51574134 -.00000029  00000-0  10000-3 0  9990
2 32395  65.0688 302.8163 0013407   2.5771  51.6940  2.13104417 74466
COSMOS 2443 (725)       
1 33379U 08046B   17203.79219258 -.00000014  00000-0  00000-0 0  9995
2 33379  65.4575  63.8112 0012092 176.1699   4.5684  2.13099489 68672
COSMOS 2456 (730)       
1 36111U 09070A   17204.62014186  .00000031  00000-0  00000-0 0  9994
2 36111  64.1828 182.3304 0006585 298.2652 318.4513  2.13103013 59195
COSMOS 2457 (733)       
1 36112U 09070B   17204.71780523  .00000030  00000-0  00000-0 0  9999
2 36112  64.1645 182.2449 0006291 193.5808 266.4487  2.13101718 59200
COSMOS 2458 (734)       
1 36113U 09070C   17204.65560828  .00000030  00000-0  10000-3 0  9991
2 36113  64.1700 182.2553 0002885 301.5572 158.7924  2.13101830 59207
COSMOS 2459 (731)       
1 36400U 10007A   17204.96008271 -.00000021  00000-0  10000-3 0  9996
2 36400  65.4388  63.4930 0028169 356.0092 322.6456  2.13102393 57559
COSMOS 2461 (735)       
1 36401U 10007B   17204.39990370 -.00000017  00000-0  10000-3 0  9999
2 36401  65.4308  63.4904 0008422  65.7994  93.7233  2.13102466 57547
COSMOS 2460 (732)       
1 36402U 10007C   17204.30462944 -.00000017  00000-0  10000-3 0  9992
2 36402  65.4201  63.4664 0002029  55.2354  72.3853  2.13101805 57541
COSMOS 2465 (737)       
1 37138U 10041B   17204.57463351 -.00000030  00000-0  00000-0 0  9990
2 37138  64.6567 302.7373 0036465 170.4763 284.6012  2.13097539 53623
COSMOS 2464 (736)       
1 37139U 10041C   17204.63545552 -.00000030  00000-0  00000-0 0  9992
2 37139  64.6641 302.7355 0021819  14.6855 310.2898  2.13102738 53610
COSMOS 2471 (701K)      
1 37372U 11009A   17204.67628155 -.00000019  00000-0  00000-0 0  9998
2 37372  65.4190  63.4003 0006720 232.2770 317.3721  2.13107704 49825
COSMOS 2474 (742)       
1 37829U 11055A   17204.88663272  .00000031  00000-0  00000-0 0  9991
2 37829  64.5063 182.9010 0010964 254.0729  66.7161  2.13101986 45192
COSMOS 2476 (744)       
1 37867U 11064A   17204.60314605  .00000032  00000-0  00000-0 0  9997
2 37867  64.4866 182.9817 0020189 246.9064 262.3553  2.13102048 44548
COSMOS 2477 (745)       
1 37868U 11064B   17204.32638080  .00000034  00000-0  00000-0 0  9995
2 37868  64.4948 183.0360 0018095 248.5520 227.4788  2.13101906 44491
COSMOS 2475 (743)       
1 37869U 11064C   17204.61996441  .00000032  00000-0  00000-0 0  9994
2 37869  64.5020 183.0174 0023056 270.9514  26.7303  2.13102166 44506
COSMOS 2485 (747)       
1 39155U 13019A   17204.74982115  .00000031  00000-0  00000-0 0  9992
2 39155  64.6564 183.0145 0020395 242.1165  64.6678  2.13101922 33013
COSMOS 2492 (754)       
1 39620U 14012A   17204.49220103 -.00000018  00000-0  10000-3 0  9997
2 39620  65.3103  63.3907 0015005 338.8166 164.5677  2.13103477 25960
COSMOS 2500 (755)       
1 40001U 14032A   17204.92025617 -.00000021  00000-0  00000-0 0  9995
2 40001  65.2511  63.3700 0004420 193.6102 141.1429  2.13103009 24184
COSMOS 2501 (702K)      
1 40315U 14075A   17204.87482566 -.00000032  00000-0  00000-0 0  9996
2 40315  64.3915 304.0571 0015882 205.7995 259.6706  2.13098759 20599
COSMOS 2514 (751)       
1 41330U 16008A   17204.39302404 -.00000018  00000-0  00000-0 0  9995
2 41330  65.0495  63.5244 0007440 210.4158 259.9339  2.13103482 11345
COSMOS 2516 (753)       
1 41554U 16032A   17204.68938344 -.00000031  00000-0  00000-0 0  9995
2 41554  64.6109 303.8377 0012589 214.7193  15.3863  2.13101685  8955
